ONEWEB-0403             
1 50483U 21132Q   25056.53653854  .00000016  00000+0  82874-5 0  9996
2 50483  87.9043  70.2389 0001766  89.7566 270.3769 13.18684532160050
ONEWEB-0404             
1 50484U 21132R   25055.86630804 -.00000082  00000+0 -26837-3 0  9992
2 50484  87.8856 116.2265 0001491 104.4104 255.7189 13.11417024154402
ONEWEB-0405             
1 50485U 21132S   25056.55234486 -.00000202  00000+0 -54516-3 0  9995
2 50485  87.9043  70.2257 0001878 101.9443 258.1900 13.18684770160461
ONEWEB-0406             
1 50486U 21132T   25056.01014167  .00000024  00000+0  27492-4 0  9993
2 50486  87.9045  70.3515 0001520  74.0353 286.0946 13.18683908160020
ONEWEB-0407             
1 50487U 21132U   25056.53495452 -.00000160  00000+0 -43791-3 0  9993
2 50487  87.9039  70.2364 0001848  97.0285 263.1058 13.18685391160036
ONEWEB-0409             
1 50488U 21132V   25055.86461706 -.00000002  00000+0 -40936-4 0  9998
2 50488  87.8851 116.2014 0001610  95.0199 265.1112 13.11413545154309
ONEWEB-0412             
1 50489U 21132W   25055.76512647 -.00000141  00000+0 -39012-3 0  9995
2 50489  87.9044  70.4023 0002017 104.0604 256.0752 13.18685407158735
ONEWEB-0413             
1 50490U 21132X   25056.52863408 -.00000186  00000+0 -50413-3 0  9993
2 50490  87.9046  70.2615 0002107 100.2965 259.8404 13.18685489160066
